461P/WISE,e,18.4047,194.3798,174.8351,3.143864,0.1768107,0.56982654,201.4302,11/17.0/2024,2000,g 18.5,4.0
# From MPEC 2024-BE0
462P/LONEOS-PANSTARRS,e,7.0351,322.7190,4.3042,4.869679,0.0917178,0.57821974,76.8987,11/17.0/2024,2000,g 17.0,4.0
# From MPEC 2024-GJ3
463P/NEOWISE,e,29.2938,283.2158,216.3430,2.974242,0.1921497,0.82575426,114.9620,11/17.0/2024,2000,g 18.0,4.0
# From MPEC 2024-Q20
464P/PANSTARRS,e,21.6710,309.5772,267.5825,4.685089,0.0971913,0.28045958,61.0859,11/17.0/2024,2000,g 10.5,4.0
# From MPEC 2024-NE4
465P/Hill,e,25.8639,217.9843,141.0350,6.016655,0.0667838,0.61345213,37.2468,11/17.0/2024,2000,g 12.5,4.0
# From MPEC 2024-JU4
466P/PANSTARRS,e,12.3163,119.3378,197.3050,4.056659,0.1206289,0.47017682,67.7699,11/17.0/2024,2000,g 14.0,4.0
# From MPEC 2023-T65
467P/LINEAR-Grauer,e,2.4790,43.2653,267.7699,5.828878,0.0700369,0.05488465,50.2491,11/17.0/2024,2000,g  9.0,4.0
# From MPEC 2024-O39
468P/SidingSpring,e,50.4481,356.1238,322.5888,7.121386,0.0518630,0.44529737,18.7616,11/17.0/2024,2000,g 11.5,4.0
# From MPEC 2024-P23
469P/PANSTARRS,e,20.1737,178.9663,43.5065,4.341180,0.1089663,0.30777615,317.8851,11/17.0/2024,2000,g 13.5,4.0
# From MPEC 2024-R10
470P/PANSTARRS,e,8.8445,246.1754,151.7896,4.468581,0.1043397,0.38975533,35.0375,11/17.0/2024,2000,g 15.5,4.0
# From MPEC 2024-GJ3
471P/,e,4.7954,283.3061,94.8877,5.703681,0.0723554,0.62802389,24.0900,11/17.0/2024,2000,g 12.0,4.0
# From MPEC 2024-VJ2
472P/NEAT-LINEAR,e,10.8272,205.9370,218.9021,7.814536,0.0451179,0.56631112,5.6402,11/17.0/2024,2000,g 10.5,4.0
# From MPEC 2024-MB8
473P/NEAT,e,56.9066,22.1859,42.9247,7.970148,0.0438031,0.82359850,11.5970,11/17.0/2024,2000,g 13.5,4.0
# From MPEC 2024-B74
474P/Hogan,e,1.0970,26.7460,11.2583,3.130291,0.1779619,0.18823086,87.2403,11/17.0/2024,2000,g 15.5,4.0
# From MPEC 2024-O39
475P/Spacewatch-LINEAR,e,14.5242,147.3700,40.3914,7.312740,0.0498407,0.44241992,8.3951,11/17.0/2024,2000,g 11.0,4.0
# From MPEC 2024-Q20
476P/PANSTARRS,e,19.0044,57.0568,46.7355,4.778860,0.0943447,0.34644214,2.9699,11/17.0/2024,2000,g 12.5,4.0
# From MPEC 2024-GJ3
477P/PANSTARRS,e,8.9142,59.1546,305.9341,3.003525,0.1893465,0.41747467,61.7966,11/17.0/2024,2000,g 14.5,4.0
# From MPEC 2024-L77
478P/ATLAS,e,12.5246,127.2689,13.2002,3.646615,0.1415367,0.34359274,28.1612,11/17.0/2024,2000,g 13.5,4.0
# From MPEC 2024-PC5
479P/Elenin,e,15.3987,295.8314,263.5211,5.623555,0.0739074,0.77885446,14.4680,11/17.0/2024,2000,g 15.0,4.0
# From MPEC 2024-GJ3
480P/PANSTARRS,e,13.7175,229.9772,214.3295,4.609115,0.0996042,0.24640543,57.1384,11/17.0/2024,2000,g 12.0,4.0
# From MPEC 2024-L77
481P/Lemmon-PANSTARRS,e,6.0826,93.5515,356.7359,4.679770,0.0973570,0.34348046,48.3803,11/17.0/2024,2000,g 13.5,4.0
# From MPEC 2024-JU4
482P/PANSTARRS,e,24.4849,126.0879,339.6881,3.755909,0.1354040,0.49236117,72.2952,11/17.0/2024,2000,g 13.5,4.0
# From MPEC 2024-R10
483P-A/PANSTARRS,e,14.2470,199.6361,48.5380,3.190838,0.1729207,0.22415845,172.5159,11/17.0/2024,2000,g 13.5,4.0
# From MPEC 2024-R10
483P-B/PANSTARRS,e,14.2478,199.6355,48.5278,3.190770,0.1729262,0.22409768,172.5506,11/17.0/2024,2000,g 17.0,4.0
# From MPEC 2024-DD5
484P/Spacewatch,e,14.4752,265.3948,240.7684,3.757799,0.1353018,0.43264819,196.3042,11/17.0/2024,2000,g 16.0,4.0
# From MPEC 2024-JU4
485P/Sheppard-Tholen,e,10.0161,261.6450,196.0453,6.848267,0.0549963,0.41713627,24.7534,11/17.0/2024,2000,g 13.0,4.0
# From MPEC 2024-R10
486P/Leonard,e,2.2095,219.0281,93.9485,3.628697,0.1425864,0.36371022,340.3434,11/17.0/2024,2000,g 14.5,4.0
# From MPEC 2024-VJ2
487P/SidingSpring,e,39.3693,49.2107,0.8636,5.165964,0.0839415,0.64866515,2.2959,11/17.0/2024,2000,g 13.5,4.0
# From MPEC 2024-UA9
488P/NEAT-PANSTARRS,e,11.3641,324.0674,1.4762,3.733282,0.1366369,0.55054146,24.8409,11/17.0/2024,2000,g 16.5,4.0
# From MPEC 2024-Q14
489P/Denning,e,4.0269,20.6115,109.4464,4.421819,0.1059992,0.64697655,319.4671,11/17.0/2024,2000,g 15.5,4.0
# From MPEC 2024-UQ8
490P/ATLAS,e,12.2663,307.6078,332.5235,3.029870,0.1868823,0.64725750,9.3092,11/17.0/2024,2000,g 21.0,4.0
# From MPEC 2024-UQ8
491P/Spacewatch-PANSTARRS,e,9.3652,311.6895,298.9198,5.013635,0.0877961,0.25868117,6.2964,11/17.0/2024,2000,g  9.5,4.0
# From MPEC 2024-VB7
492P/LINEAR,e,11.4001,11.3143,40.9977,5.765462,0.0711956,0.69088767,8.5072,11/17.0/2024,2000,g 15.0,4.0
# From MPEC 2024-VJ2
493P/LONEOS,e,24.1146,1.1138,83.1826,7.159243,0.0514521,0.46589443,338.2287,11/17.0/2024,2000,g 12.0,2.0
# From MPC107687
1I/`Oumuamua,h,09/09.4886/2017,122.6778,24.5997,241.6845,1.199252,0.255240,2000,23.0,2.0
# From MPEC 2023-L37
2I/Borisov,h,12/08.5548/2019,44.0527,308.1480,209.1251,3.356633,2.006548,2000,11.0,4.0
